STARLINK-32237          
1 60443U 24144U   26068.62841727  .00001518  00000+0  63376-4 0  9994
2 60443  53.1588 217.1357 0000868  58.8234 301.2851 15.30189107 89302
2025-155V               
1 64895U 25155V   26068.85787115  .00013705  00000+0  51002-3 0  9990
2 64895  97.4485  37.2490 0008035 152.8264 207.3397 15.27583301 65579
